NORAD_CAT_ID,OBJECT_NAME,OBJECT_TYPE,EPOCH,MEAN_MOTION,ECCENTRICITY,INCLINATION,RA_OF_ASC_NODE,ARG_OF_PERICENTER,MEAN_ANOMALY,BSTAR,MEAN_MOTION_DOT,MEAN_MOTION_DDOT,TLE_LINE0,TLE_LINE1,TLE_LINE2,SEMIMAJOR_AXIS,PERIOD,APOGEE,PERIGEE,DECAYED
56496.0,STARLINK-5526,PAYLOAD,2023-12-29 07:03:03,14.98321236,0.0002554,70.0008,324.9541,271.8957,88.1909,-3.6278e-05,-5.26e-06,0.0,0 STARLINK-5526,1 56496U 23064BA  23363.29379009 -.00000526  00000-0 -36278-4 0  9996,2 56496  70.0008 324.9541 0002554 271.8957  88.1909 14.98321236 36193,6950.22,96.108,573.86,570.31,0.0
56496.0,STARLINK-5526,PAYLOAD,2023-12-30 03:52:47,14.98334444,0.0002578,70.0007,322.7675,259.454,100.6329,0.00013422,1.509e-05,0.0,0 STARLINK-5526,1 56496U 23064BA  23364.16165574  .00001509  00000-0  13422-3 0  9998,2 56496  70.0007 322.7675 0002578 259.4540 100.6329 14.98334444 36687,6950.179,96.107,573.836,570.252,0.0
56496.0,STARLINK-5526,PAYLOAD,2023-12-30 07:05:02,14.98339285,0.0002894,69.9999,322.4297,272.0233,88.0595,0.00016384,1.863e-05,0.0,0 STARLINK-5526,1 56496U 23064BA  23364.29517180  .00001863  00000-0  16384-3 0  9999,2 56496  69.9999 322.4297 0002894 272.0233  88.0595 14.98339285 36347,6950.164,96.106,574.041,570.018,0.0
56496.0,STARLINK-5526,PAYLOAD,2023-12-30 21:30:15,14.98325744,0.0002579,70.0011,320.9143,276.1379,83.9486,0.00021226,2.44e-05,0.0,0 STARLINK-5526,1 56496U 23064BA  23364.89601840  .00002440  00000-0  21226-3 0  9995,2 56496  70.0011 320.9143 0002579 276.1379  83.9486 14.98325744 36432,6950.206,96.107,573.864,570.279,0.0
56496.0,STARLINK-5526,PAYLOAD,2023-12-31 03:54:48,14.98323659,0.0002606,70.0007,320.2402,268.6006,91.4855,0.00016677,1.897e-05,0.0,0 STARLINK-5526,1 56496U 23064BA  23365.16306072  .00001897  00000-0  16677-3 0  9994,2 56496  70.0007 320.2402 0002606 268.6006  91.4855 14.98323659 36833,6950.213,96.107,573.889,570.266,0.0
56496.0,STARLINK-5526,PAYLOAD,2023-12-31 21:32:16,14.98338087,0.0002726,70.0005,318.3893,270.0528,90.0319,-7.9091e-05,-1.037e-05,0.0,0 STARLINK-5526,1 56496U 23064BA  23365.89741728 -.00001037  00000-0 -79091-4 0  9993,2 56496  70.0005 318.3893 0002726 270.0528  90.0319 14.98338087 36585,6950.168,96.106,573.927,570.138,0.0
56496.0,STARLINK-5526,PAYLOAD,2024-01-01 03:56:49,14.98334969,0.0002838,70.0003,317.7166,264.7296,95.3539,-7.3471e-05,-9.7e-06,0.0,0 STARLINK-5526,1 56496U 23064BA  24001.16445739 -.00000970  00000-0 -73471-4 0  9995,2 56496  70.0003 317.7166 0002838 264.7296  95.3539 14.98334969 36986,6950.178,96.107,574.015,570.07,0.0
56496.0,STARLINK-5526,PAYLOAD,2024-01-01 07:09:05,14.98333108,0.000282,70.0004,317.3799,264.2062,95.8775,-3.873e-05,-5.55e-06,0.0,0 STARLINK-5526,1 56496U 23064BA  24001.29797729 -.00000555  00000-0 -38730-4 0  9996,2 56496  70.0004 317.3799 0002820 264.2062  95.8775 14.98333108 36646,6950.183,96.107,574.008,570.088,0.0
56496.0,STARLINK-5526,PAYLOAD,2024-01-01 21:34:17,14.98324686,0.0003277,70.0007,315.8606,258.4531,101.626,5.2397e-06,-3.1e-07,0.0,0 STARLINK-5526,1 56496U 23064BA  24001.89881667 -.00000031  00000-0  52397-5 0  9991,2 56496  70.0007 315.8606 0003277 258.4531 101.6260 14.98324686 36738,6950.209,96.107,574.352,569.797,0.0
56496.0,STARLINK-5526,PAYLOAD,2024-01-02 03:58:50,14.98318605,0.0002724,70.0004,315.1906,266.6464,93.4384,-0.00012651,-1.602e-05,0.0,0 STARLINK-5526,1 56496U 23064BA  24002.16586747 -.00001602  00000-0 -12651-3 0  9996,2 56496  70.0004 315.1906 0002724 266.6464  93.4384 14.98318605 37137,6950.228,96.108,573.986,570.2,0.0
56496.0,STARLINK-5526,PAYLOAD,2024-01-02 07:11:06,14.98321951,0.0002815,70.0003,314.8539,265.7789,94.3048,-7.5012e-05,-9.88e-06,0.0,0 STARLINK-5526,1 56496U 23064BA  24002.29938453 -.00000988  00000-0 -75012-4 0  9992,2 56496  70.0003 314.8539 0002815 265.7789  94.3048 14.98321951 36791,6950.218,96.108,574.039,570.126,0.0
56496.0,STARLINK-5526,PAYLOAD,2024-01-02 21:36:18,14.98333513,0.0002929,70.0004,313.3387,267.9413,92.1411,0.00010251,1.13e-05,0.0,0 STARLINK-5526,1 56496U 23064BA  24002.90021324  .00001130  00000-0  10251-3 0  9991,2 56496  70.0004 313.3387 0002929 267.9413  92.1411 14.98333513 36888,6950.182,96.107,574.083,570.011,0.0
56496.0,STARLINK-5526,PAYLOAD,2024-01-03 04:00:50,14.98331119,0.0003023,70.0005,312.6654,273.0601,87.0212,0.00031712,3.693e-05,0.0,0 STARLINK-5526,1 56496U 23064BA  24003.16724944  .00003693  00000-0  31712-3 0  9999,2 56496  70.0005 312.6654 0003023 273.0601  87.0212 14.98331119 37288,6950.189,96.107,574.155,569.953,0.0
56496.0,STARLINK-5526,PAYLOAD,2024-01-03 07:13:06,14.98336543,0.0002899,70.0003,312.329,275.302,84.7808,0.00012804,1.435e-05,0.0,0 STARLINK-5526,1 56496U 23064BA  24003.30077073  .00001435  00000-0  12804-3 0  9992,2 56496  70.0003 312.3290 0002899 275.3020  84.7808 14.98336543 36942,6950.173,96.107,574.053,570.023,0.0
56496.0,STARLINK-5526,PAYLOAD,2024-01-03 21:38:19,14.98332671,0.0003348,70.0012,310.8138,266.412,93.6656,5.3412e-05,5.44e-06,0.0,0 STARLINK-5526,1 56496U 23064BA  24003.90161208  .00000544  00000-0  53412-4 0  9993,2 56496  70.0012 310.8138 0003348 266.4120  93.6656 14.98332671 37037,6950.185,96.107,574.377,569.723,0.0
56496.0,STARLINK-5526,PAYLOAD,2024-01-04 04:02:51,14.98334275,0.0002994,70.0005,310.1419,264.3054,95.7763,5.5334e-06,-2.7e-07,0.0,0 STARLINK-5526,1 56496U 23064BA  24004.16865223 -.00000027  00000-0  55334-5 0  9993,2 56496  70.0005 310.1419 0002994 264.3054  95.7763 14.98334275 37431,6950.18,96.107,574.126,569.964,0.0
56496.0,STARLINK-5526,PAYLOAD,2024-01-04 07:15:07,14.98325885,0.0002845,70.0004,309.8047,266.235,93.8483,0.00015631,1.772e-05,0.0,0 STARLINK-5526,1 56496U 23064BA  24004.30217352  .00001772  00000-0  15631-3 0  9994,2 56496  70.0004 309.8047 0002845 266.2350  93.8483 14.98325885 37094,6950.206,96.107,574.048,570.093,0.0
56496.0,STARLINK-5526,PAYLOAD,2024-01-04 21:40:20,14.98333923,0.0002495,70.0006,308.2903,255.8619,104.2263,-2.8366e-05,-4.31e-06,0.0,0 STARLINK-5526,1 56496U 23064BA  24004.90301259 -.00000431  00000-0 -28366-4 0  9993,2 56496  70.0006 308.2903 0002495 255.8619 104.2263 14.98333923 37188,6950.181,96.107,573.78,570.312,0.0
56496.0,STARLINK-5526,PAYLOAD,2024-01-05 04:04:52,14.98332975,0.0002504,70.0006,307.6171,256.3135,103.7745,-3.6203e-05,-5.25e-06,0.0,0 STARLINK-5526,1 56496U 23064BA  24005.17005266 -.00000525  00000-0 -36203-4 0  9995,2 56496  70.0006 307.6171 0002504 256.3135 103.7745 14.98332975 37587,6950.184,96.107,573.789,570.308,0.0
56496.0,STARLINK-5526,PAYLOAD,2024-01-05 05:41:00,14.98334753,0.0002788,70.0001,307.4473,268.3222,91.7618,-4.4626e-05,-6.25e-06,0.0,0 STARLINK-5526,1 56496U 23064BA  24005.23681185 -.00000625  00000-0 -44626-4 0  9991,2 56496  70.0001 307.4473 0002788 268.3222  91.7618 14.98334753 37232,6950.178,96.107,573.981,570.105,0.0
56496.0,STARLINK-5526,PAYLOAD,2024-01-05 21:42:21,14.98327189,0.0002578,70.0001,305.7642,265.5518,94.5346,-4.9787e-05,-6.87e-06,0.0,0 STARLINK-5526,1 56496U 23064BA  24005.90441597 -.00000687  00000-0 -49787-4 0  9997,2 56496  70.0001 305.7642 0002578 265.5518  94.5346 14.98327189 37330,6950.202,96.107,573.858,570.275,0.0
56496.0,STARLINK-5526,PAYLOAD,2024-01-06 04:06:53,14.98327172,0.000258,70.0001,305.0911,265.2335,94.853,-4.6591e-05,-6.49e-06,0.0,0 STARLINK-5526,1 56496U 23064BA  24006.17145628 -.00000649  00000-0 -46591-4 0  9991,2 56496  70.0001 305.0911 0002580 265.2335  94.8530 14.98327172 37733,6950.202,96.107,573.86,570.273,0.0
56496.0,STARLINK-5526,PAYLOAD,2024-01-06 05:43:01,14.98327516,0.000259,70.0002,304.9229,267.3887,92.6976,-4.0463e-05,-5.76e-06,0.0,0 STARLINK-5526,1 56496U 23064BA  24006.23821613 -.00000576  00000-0 -40463-4 0  9994,2 56496  70.0002 304.9229 0002590 267.3887  92.6976 14.98327516 37383,6950.201,96.107,573.866,570.265,0.0
56496.0,STARLINK-5526,PAYLOAD,2024-01-06 21:44:22,14.98331563,0.0002713,69.9999,303.2391,272.7,87.3849,1.3603e-05,6.9e-07,0.0,0 STARLINK-5526,1 56496U 23064BA  24006.90581202  .00000069  00000-0  13603-4 0  9996,2 56496  69.9999 303.2391 0002713 272.7000  87.3849 14.98331563 37489,6950.188,96.107,573.939,570.167,0.0
56496.0,STARLINK-5526,PAYLOAD,2024-01-07 04:08:54,14.98335463,0.000283,69.9995,302.5656,272.0495,88.034,4.5613e-05,4.51e-06,0.0,0 STARLINK-5526,1 56496U 23064BA  24007.17284818  .00000451  00000-0  45613-4 0  9990,2 56496  69.9995 302.5656 0002830 272.0495  88.0340 14.98335463 37883,6950.176,96.107,574.008,570.074,0.0
56496.0,STARLINK-5526,PAYLOAD,2024-01-07 05:45:02,14.98335966,0.0002768,69.9997,302.3974,271.9759,88.1083,5.6527e-05,5.82e-06,0.0,0 STARLINK-5526,1 56496U 23064BA  24007.23960750  .00000582  00000-0  56527-4 0  9994,2 56496  69.9997 302.3974 0002768 271.9759  88.1083 14.98335966 37532,6950.174,96.107,573.963,570.116,0.0
56496.0,STARLINK-5526,PAYLOAD,2024-01-07 20:10:15,14.98327979,0.0002859,69.9994,300.8823,271.3139,88.7692,2.8819e-05,2.51e-06,0.0,0 STARLINK-5526,1 56496U 23064BA  24007.84045239  .00000251  00000-0  28819-4 0  9993,2 56496  69.9994 300.8823 0002859 271.3139  88.7692 14.98327979 37988,6950.199,96.107,574.051,570.077,0.0
56496.0,STARLINK-5526,PAYLOAD,2024-01-07 21:46:23,14.98328234,0.000286,69.9994,300.7139,271.0919,88.9912,3.0937e-05,2.76e-06,0.0,0 STARLINK-5526,1 56496U 23064BA  24007.90721213  .00000276  00000-0  30937-4 0  9994,2 56496  69.9994 300.7139 0002860 271.0919  88.9912 14.98328234 37636,6950.198,96.107,574.051,570.076,0.0
56496.0,STARLINK-5526,PAYLOAD,2024-01-08 05:47:02,14.98333881,0.0002656,69.9998,299.8725,271.1684,88.9171,0.00010244,1.13e-05,0.0,0 STARLINK-5526,1 56496U 23064BA  24008.24100652  .00001130  00000-0  10244-3 0  9998,2 56496  69.9998 299.8725 0002656 271.1684  88.9171 14.98333881 38049,6950.181,96.107,573.892,570.2,0.0
56496.0,STARLINK-5526,PAYLOAD,2024-01-08 20:12:16,14.98327104,0.0002709,70.0005,298.3586,272.3759,87.709,-2.7151e-05,-4.17e-06,0.0,0 STARLINK-5526,1 56496U 23064BA  24008.84185396 -.00000417  00000-0 -27151-4 0  9997,2 56496  70.0005 298.3586 0002709 272.3759  87.7090 14.98327104 38133,6950.202,96.107,573.95,570.184,0.0
